start=new Date('2023-05-11T00:00:00.000Z').valueOf();
sats=[{"RA_OF_ASC_NODE":"323.8806","CLASSIFICATION_TYPE":"U","NORAD_CAT_ID":"55786","MEAN_MOTION_DOT":"0.00012745","TIME_SYSTEM":"UTC","GP_ID":"231569900","MEAN_MOTION_DDOT":"0.0000000000000","OBJECT_ID":"2023-028AX","REF_FRAME":"TEME","RCS_SIZE":"LARGE","TLE_LINE1":"1 55786U 23028AX  23130.79969902  .00012745  00000-0  10751-3 0  9992","APOAPSIS":"361.389","COUNTRY_CODE":"US","OBJECT_TYPE":"PAYLOAD","CENTER_NAME":"EARTH","FILE":"3904830","EPHEMERIS_TYPE":"0","LAUNCH_DATE":"2023-03-03","EPOCH":"2023-05-10T19:11:33.995328","ELEMENT_SET_NO":"999","ARG_OF_PERICENTER":"261.7331","ECCENTRICITY":"0.00034590","SEMIMAJOR_AXIS":"6737.194","OBJECT_NAME":"STARLINK-5823","PERIAPSIS":"356.728","INCLINATION":"69.9995","BSTAR":"0.00010751000000","MEAN_MOTION":"15.69944216","PERIOD":"91.723","REV_AT_EPOCH":"1135","TLE_LINE2":"2 55786  69.9995 323.8806 0003459 261.7331  98.3472 15.69944216 11354","DECAY_DATE":null,"MEAN_ANOMALY":"98.3472","MEAN_ELEMENT_THEORY":"SGP4","SITE":"AFWTR"},{"PERIOD":"91.724","MEAN_MOTION":"15.69930363","TLE_LINE2":"2 55787  69.9988 323.8830 0003473 256.1408 103.9402 15.69930363 11357","REV_AT_EPOCH":"1135","INCLINATION":"69.9988","BSTAR":"0.00004965200000","MEAN_ELEMENT_THEORY":"SGP4","DECAY_DATE":null,"MEAN_ANOMALY":"103.9402","SITE":"AFWTR","EPOCH":"2023-05-10T19:12:01.540512","ELEMENT_SET_NO":"999","EPHEMERIS_TYPE":"0","LAUNCH_DATE":"2023-03-03","PERIAPSIS":"356.758","ARG_OF_PERICENTER":"256.1408","OBJECT_NAME":"STARLINK-5811","SEMIMAJOR_AXIS":"6737.233","ECCENTRICITY":"0.00034730","FILE":"3904830","APOAPSIS":"361.438","TLE_LINE1":"1 55787U 23028AY  23130.80001783  .00005763  00000-0  49652-4 0  9994","OBJECT_TYPE":"PAYLOAD","CENTER_NAME":"EARTH","COUNTRY_CODE":"US","MEAN_MOTION_DOT":"0.00005763","NORAD_CAT_ID":"55787","TIME_SYSTEM":"UTC","CLASSIFICATION_TYPE":"U","RA_OF_ASC_NODE":"323.8830","RCS_SIZE":"LARGE","MEAN_MOTION_DDOT":"0.0000000000000","GP_ID":"231570151","REF_FRAME":"TEME","OBJECT_ID":"2023-028AY"},{"RCS_SIZE":"LARGE","GP_ID":"231568899","MEAN_MOTION_DDOT":"0.0000000000000","OBJECT_ID":"2023-028AZ","REF_FRAME":"TEME","NORAD_CAT_ID":"55788","MEAN_MOTION_DOT":"0.00001836","TIME_SYSTEM":"UTC","RA_OF_ASC_NODE":"323.8831","CLASSIFICATION_TYPE":"U","FILE":"3904830","TLE_LINE1":"1 55788U 23028AZ  23130.79990468  .00001836  00000-0  17029-4 0  9990","APOAPSIS":"361.535","COUNTRY_CODE":"US","OBJECT_TYPE":"PAYLOAD","CENTER_NAME":"EARTH","PERIAPSIS":"356.623","ARG_OF_PERICENTER":"269.0747","ECCENTRICITY":"0.00036460","SEMIMAJOR_AXIS":"6737.214","OBJECT_NAME":"STARLINK-5804","EPOCH":"2023-05-10T19:11:51.764352","ELEMENT_SET_NO":"999","EPHEMERIS_TYPE":"0","LAUNCH_DATE":"2023-03-03","MEAN_ANOMALY":"91.0031","DECAY_DATE":null,"MEAN_ELEMENT_THEORY":"SGP4","SITE":"AFWTR","MEAN_MOTION":"15.69937111","PERIOD":"91.723","REV_AT_EPOCH":"1135","TLE_LINE2":"2 55788  69.9972 323.8831 0003646 269.0747  91.0031 15.69937111 11356","INCLINATION":"69.9972","BSTAR":"0.00001702900000"},{"TLE_LINE1":"1 55789U 23028BA  23130.67195204  .00000466  00000-0  56459-5 0  9992","APOAPSIS":"361.760","COUNTRY_CODE":"US","OBJECT_TYPE":"PAYLOAD","CENTER_NAME":"EARTH","FILE":"3904830","RA_OF_ASC_NODE":"324.2391","CLASSIFICATION_TYPE":"U","NORAD_CAT_ID":"55789","MEAN_MOTION_DOT":"0.00000466","TIME_SYSTEM":"UTC","GP_ID":"231569649","MEAN_MOTION_DDOT":"0.0000000000000","OBJECT_ID":"2023-028BA","REF_FRAME":"TEME","RCS_SIZE":"LARGE","INCLINATION":"69.9969","BSTAR":"0.00000564590000","MEAN_MOTION":"15.69926992","PERIOD":"91.724","REV_AT_EPOCH":"1133","TLE_LINE2":"2 55789  69.9969 324.2391 0003937 264.0541  96.0206 15.69926992 11331","DECAY_DATE":null,"MEAN_ANOMALY":"96.0206","MEAN_ELEMENT_THEORY":"SGP4","SITE":"AFWTR","EPHEMERIS_TYPE":"0","LAUNCH_DATE":"2023-03-03","EPOCH":"2023-05-10T16:07:36.656256","ELEMENT_SET_NO":"999","ARG_OF_PERICENTER":"264.0541","ECCENTRICITY":"0.00039370","SEMIMAJOR_AXIS":"6737.243","OBJECT_NAME":"STARLINK-5815","PERIAPSIS":"356.455"},{"ECCENTRICITY":"0.00036760","SEMIMAJOR_AXIS":"6737.210","OBJECT_NAME":"STARLINK-5813","ARG_OF_PERICENTER":"265.9293","PERIAPSIS":"356.599","LAUNCH_DATE":"2023-03-03","EPHEMERIS_TYPE":"0","ELEMENT_SET_NO":"999","EPOCH":"2023-05-10T19:11:15.301824","SITE":"AFWTR","MEAN_ELEMENT_THEORY":"SGP4","MEAN_ANOMALY":"94.1483","DECAY_DATE":null,"BSTAR":"0.00000967520000","INCLINATION":"69.9973","TLE_LINE2":"2 55790  69.9973 323.8810 0003676 265.9293  94.1483 15.69938398 11354","REV_AT_EPOCH":"1135","PERIOD":"91.723","MEAN_MOTION":"15.69938398","REF_FRAME":"TEME","OBJECT_ID":"2023-028BB","MEAN_MOTION_DDOT":"0.0000000000000","GP_ID":"231570401","RCS_SIZE":"LARGE","CLASSIFICATION_TYPE":"U","RA_OF_ASC_NODE":"323.8810","TIME_SYSTEM":"UTC","MEAN_MOTION_DOT":"0.00000951","NORAD_CAT_ID":"55790","OBJECT_TYPE":"PAYLOAD","CENTER_NAME":"EARTH","COUNTRY_CODE":"US","APOAPSIS":"361.552","TLE_LINE1":"1 55790U 23028BB  23130.79948266  .00000951  00000-0  96752-5 0  9990","FILE":"3904830"},{"DECAY_DATE":null,"MEAN_ANOMALY":"95.0506","MEAN_ELEMENT_THEORY":"SGP4","SITE":"AFWTR","MEAN_MOTION":"15.69939677","PERIOD":"91.723","REV_AT_EPOCH":"1135","TLE_LINE2":"2 55791  69.9963 323.8810 0003839 265.0252  95.0506 15.69939677 11358","INCLINATION":"69.9963","BSTAR":"0.00001304100000","PERIAPSIS":"356.485","ARG_OF_PERICENTER":"265.0252","SEMIMAJOR_AXIS":"6737.207","OBJECT_NAME":"STARLINK-5807","ECCENTRICITY":"0.00038390","EPOCH":"2023-05-10T19:11:24.148320","ELEMENT_SET_NO":"999","EPHEMERIS_TYPE":"0","LAUNCH_DATE":"2023-03-03","FILE":"3904830","TLE_LINE1":"1 55791U 23028BC  23130.79958505  .00001356  00000-0  13041-4 0  9997","APOAPSIS":"361.658","COUNTRY_CODE":"US","OBJECT_TYPE":"PAYLOAD","CENTER_NAME":"EARTH","RCS_SIZE":"LARGE","GP_ID":"231570652","MEAN_MOTION_DDOT":"0.0000000000000","OBJECT_ID":"2023-028BC","REF_FRAME":"TEME","NORAD_CAT_ID":"55791","MEAN_MOTION_DOT":"0.00001356","TIME_SYSTEM":"UTC","RA_OF_ASC_NODE":"323.8810","CLASSIFICATION_TYPE":"U"},{"CLASSIFICATION_TYPE":"U","RA_OF_ASC_NODE":"31.7113","MEAN_MOTION_DOT":"-0.00917522","NORAD_CAT_ID":"55914","TIME_SYSTEM":"UTC","MEAN_MOTION_DDOT":"0.0000000000000","GP_ID":"231570415","REF_FRAME":"TEME","OBJECT_ID":"2023-037A","RCS_SIZE":"LARGE","APOAPSIS":"504.513","TLE_LINE1":"1 55914U 23037A   23130.91667824 -.00917522  00000-0 -44335-1 0  9999","OBJECT_TYPE":"PAYLOAD","CENTER_NAME":"EARTH","COUNTRY_CODE":"US","FILE":"3904830","EPHEMERIS_TYPE":"0","LAUNCH_DATE":"2023-03-17","EPOCH":"2023-05-10T22:00:00.999936","ELEMENT_SET_NO":"999","ARG_OF_PERICENTER":"273.1240","OBJECT_NAME":"STARLINK-5856","SEMIMAJOR_AXIS":"6880.539","ECCENTRICITY":"0.00030650","PERIAPSIS":"500.295","INCLINATION":"70.0009","BSTAR":"-0.04433500000000","PERIOD":"94.666","MEAN_MOTION":"15.21139719","TLE_LINE2":"2 55914  70.0009  31.7113 0003065 273.1240 286.3604 15.21139719  1303","REV_AT_EPOCH":"130","MEAN_ELEMENT_THEORY":"SGP4","DECAY_DATE":null,"MEAN_ANOMALY":"286.3604","SITE":"AFWTR"},{"SEMIMAJOR_AXIS":"6877.097","ECCENTRICITY":"0.00031200","OBJECT_NAME":"STARLINK-5859","ARG_OF_PERICENTER":"267.8459","PERIAPSIS":"496.817","LAUNCH_DATE":"2023-03-17","EPHEMERIS_TYPE":"0","ELEMENT_SET_NO":"999","EPOCH":"2023-05-10T22:00:00.999936","SITE":"AFWTR","MEAN_ELEMENT_THEORY":"SGP4","MEAN_ANOMALY":"356.8228","DECAY_DATE":null,"BSTAR":"-0.04297600000000","INCLINATION":"70.0014","TLE_LINE2":"2 55915  70.0014  31.6390 0003120 267.8459 356.8228 15.22281594  1305","REV_AT_EPOCH":"130","PERIOD":"94.595","MEAN_MOTION":"15.22281594","REF_FRAME":"TEME","OBJECT_ID":"2023-037B","MEAN_MOTION_DDOT":"0.0000000000000","GP_ID":"231570666","RCS_SIZE":"LARGE","CLASSIFICATION_TYPE":"U","RA_OF_ASC_NODE":"31.6390","TIME_SYSTEM":"UTC","MEAN_MOTION_DOT":"-0.00919699","NORAD_CAT_ID":"55915","CENTER_NAME":"EARTH","OBJECT_TYPE":"PAYLOAD","COUNTRY_CODE":"US","APOAPSIS":"501.108","TLE_LINE1":"1 55915U 23037B   23130.91667824 -.00919699  00000-0 -42976-1 0  9996","FILE":"3904830"},{"SITE":"AFWTR","MEAN_ELEMENT_THEORY":"SGP4","MEAN_ANOMALY":"311.4504","DECAY_DATE":null,"TLE_LINE2":"2 55916  70.0010  31.6869 0003070 269.9043 311.4504 15.21522605  1303","REV_AT_EPOCH":"130","PERIOD":"94.642","MEAN_MOTION":"15.21522605","BSTAR":"-0.04383000000000","INCLINATION":"70.0010","PERIAPSIS":"499.137","ECCENTRICITY":"0.00030700","SEMIMAJOR_AXIS":"6879.384","OBJECT_NAME":"STARLINK-5796","ARG_OF_PERICENTER":"269.9043","ELEMENT_SET_NO":"999","EPOCH":"2023-05-10T22:00:00.999936","LAUNCH_DATE":"2023-03-17","EPHEMERIS_TYPE":"0","FILE":"3904830","CENTER_NAME":"EARTH","OBJECT_TYPE":"PAYLOAD","COUNTRY_CODE":"US","APOAPSIS":"503.361","TLE_LINE1":"1 55916U 23037C   23130.91667824 -.00917361  00000-0 -43830-1 0  9991","RCS_SIZE":"LARGE","REF_FRAME":"TEME","OBJECT_ID":"2023-037C","MEAN_MOTION_DDOT":"0.0000000000000","GP_ID":"231569414","TIME_SYSTEM":"UTC","MEAN_MOTION_DOT":"-0.00917361","NORAD_CAT_ID":"55916","CLASSIFICATION_TYPE":"U","RA_OF_ASC_NODE":"31.6869"},{"PERIAPSIS":"497.598","ARG_OF_PERICENTER":"271.9842","SEMIMAJOR_AXIS":"6877.865","OBJECT_NAME":"STARLINK-5855","ECCENTRICITY":"0.00031000","EPOCH":"2023-05-10T22:00:00.999936","ELEMENT_SET_NO":"999","EPHEMERIS_TYPE":"0","LAUNCH_DATE":"2023-03-17","MEAN_ELEMENT_THEORY":"SGP4","DECAY_DATE":null,"MEAN_ANOMALY":"338.2908","SITE":"AFWTR","PERIOD":"94.611","MEAN_MOTION":"15.22026788","TLE_LINE2":"2 55917  70.0013  31.6543 0003100 271.9842 338.2908 15.22026788  1307","REV_AT_EPOCH":"130","INCLINATION":"70.0013","BSTAR":"-0.04323000000000","RCS_SIZE":"LARGE","MEAN_MOTION_DDOT":"0.0000000000000","GP_ID":"231569163","REF_FRAME":"TEME","OBJECT_ID":"2023-037D","MEAN_MOTION_DOT":"-0.00918295","NORAD_CAT_ID":"55917","TIME_SYSTEM":"UTC","CLASSIFICATION_TYPE":"U","RA_OF_ASC_NODE":"31.6543","FILE":"3904830","APOAPSIS":"501.862","TLE_LINE1":"1 55917U 23037D   23130.91667824 -.00918295  00000-0 -43230-1 0  9993","OBJECT_TYPE":"PAYLOAD","CENTER_NAME":"EARTH","COUNTRY_CODE":"US"}];
